[{"OBJECT_NAME":"PHISAT 2","OBJECT_ID":"2024-149C","EPOCH":"2026-03-09T18:55:12.732384","MEAN_MOTION":15.29548632,"ECCENTRICITY":0.00011753,"INCLINATION":97.3806,"RA_OF_ASC_NODE":148.6498,"ARG_OF_PERICENTER":168.623,"MEAN_ANOMALY":191.5037,"EPHEMERIS_TYPE":0,"CLASSIFICATION_TYPE":"U","NORAD_CAT_ID":60470,"ELEMENT_SET_NO":999,"REV_AT_EPOCH":8679,"BSTAR":0.00031420974,"MEAN_MOTION_DOT":8.925e-5,"MEAN_MOTION_DDOT":0},{"OBJECT_NAME":"STARLINK-35653","OBJECT_ID":"2025-237J","EPOCH":"2026-03-09T21:53:09.425760","MEAN_MOTION":15.30204154,"ECCENTRICITY":0.00012084,"INCLINATION":53.1613,"RA_OF_ASC_NODE":38.6603,"ARG_OF_PERICENTER":77.8994,"MEAN_ANOMALY":282.2143,"EPHEMERIS_TYPE":0,"CLASSIFICATION_TYPE":"U","NORAD_CAT_ID":66122,"ELEMENT_SET_NO":999,"REV_AT_EPOCH":2264,"BSTAR":0.0013920206,"MEAN_MOTION_DOT":0.00041102,"MEAN_MOTION_DDOT":0}]
